CCSDS_OMM_VERS = 2.0
CREATION_DATE  = 
ORIGINATOR     = 

OBJECT_NAME    = CZ-2C DEB
OBJECT_ID      = 2026-009D
CENTER_NAME    = EARTH
REF_FRAME      = TEME
TIME_SYSTEM    = UTC
MEAN_ELEMENT_THEORY = SGP/SGP4

EPOCH          = 2026-02-12T04:47:08.636928
MEAN_MOTION    = 15.14012616
ECCENTRICITY   = .0106789
INCLINATION    = 97.6728
RA_OF_ASC_NODE = 118.0713
ARG_OF_PERICENTER = 130.8142
MEAN_ANOMALY   = 230.2411

EPHEMERIS_TYPE = 0
CLASSIFICATION_TYPE = U
NORAD_CAT_ID   = 67587
ELEMENT_SET_NO = 999
REV_AT_EPOCH   = 423
BSTAR          = .19861E-2
MEAN_MOTION_DOT = .41698E-3
MEAN_MOTION_DDOT = 0

CCSDS_OMM_VERS = 2.0
CREATION_DATE  = 
ORIGINATOR     = 

OBJECT_NAME    = NAVSTAR 85 (USA 581)
OBJECT_ID      = 2026-017A
CENTER_NAME    = EARTH
REF_FRAME      = TEME
TIME_SYSTEM    = UTC
MEAN_ELEMENT_THEORY = SGP/SGP4

EPOCH          = 2026-02-11T13:21:06.531840
MEAN_MOTION    = 2.00561439
ECCENTRICITY   = .0000849
INCLINATION    = 55.0041
RA_OF_ASC_NODE = 93.7970
ARG_OF_PERICENTER = 63.5435
MEAN_ANOMALY   = 296.5294

EPHEMERIS_TYPE = 0
CLASSIFICATION_TYPE = U
NORAD_CAT_ID   = 67588
ELEMENT_SET_NO = 999
REV_AT_EPOCH   = 42909
BSTAR          = 0
MEAN_MOTION_DOT = -.27E-6
MEAN_MOTION_DDOT = 0

CCSDS_OMM_VERS = 2.0
CREATION_DATE  = 
ORIGINATOR     = 

OBJECT_NAME    = STARLINK-36641
OBJECT_ID      = 2026-018A
CENTER_NAME    = EARTH
REF_FRAME      = TEME
TIME_SYSTEM    = UTC
MEAN_ELEMENT_THEORY = SGP/SGP4

EPOCH          = 2026-02-12T12:00:01.999296
MEAN_MOTION    = 15.80348320
ECCENTRICITY   = .0001908
INCLINATION    = 97.2847
RA_OF_ASC_NODE = 108.0124
ARG_OF_PERICENTER = 109.6354
MEAN_ANOMALY   = 85.2345

EPHEMERIS_TYPE = 0
CLASSIFICATION_TYPE = U
NORAD_CAT_ID   = 67589
ELEMENT_SET_NO = 999
REV_AT_EPOCH   = 329
BSTAR          = -.1117E-1
MEAN_MOTION_DOT = -.1839335E-1
MEAN_MOTION_DDOT = 0

CCSDS_OMM_VERS = 2.0
CREATION_DATE  = 
ORIGINATOR     = 

OBJECT_NAME    = STARLINK-36376
OBJECT_ID      = 2026-018B
CENTER_NAME    = EARTH
REF_FRAME      = TEME
TIME_SYSTEM    = UTC
MEAN_ELEMENT_THEORY = SGP/SGP4

EPOCH          = 2026-02-12T12:00:01.999296
MEAN_MOTION    = 15.80784680
ECCENTRICITY   = .0001452
INCLINATION    = 97.2848
RA_OF_ASC_NODE = 108.0134
ARG_OF_PERICENTER = 113.4577
MEAN_ANOMALY   = 86.7096

EPHEMERIS_TYPE = 0
CLASSIFICATION_TYPE = U
NORAD_CAT_ID   = 67590
ELEMENT_SET_NO = 999
REV_AT_EPOCH   = 334
BSTAR          = .2456E-3
MEAN_MOTION_DOT = .4709E-3
MEAN_MOTION_DDOT = 0

CCSDS_OMM_VERS = 2.0
CREATION_DATE  = 
ORIGINATOR     = 

OBJECT_NAME    = STARLINK-36391
OBJECT_ID      = 2026-018C
CENTER_NAME    = EARTH
REF_FRAME      = TEME
TIME_SYSTEM    = UTC
MEAN_ELEMENT_THEORY = SGP/SGP4

EPOCH          = 2026-02-12T12:00:01.999296
MEAN_MOTION    = 15.80718438
ECCENTRICITY   = .0001517
INCLINATION    = 97.2847
RA_OF_ASC_NODE = 108.0163
ARG_OF_PERICENTER = 66.3827
MEAN_ANOMALY   = 140.1104

EPHEMERIS_TYPE = 0
CLASSIFICATION_TYPE = U
NORAD_CAT_ID   = 67591
ELEMENT_SET_NO = 999
REV_AT_EPOCH   = 334
BSTAR          = .17265E-3
MEAN_MOTION_DOT = .32907E-3
MEAN_MOTION_DDOT = 0

CCSDS_OMM_VERS = 2.0
CREATION_DATE  = 
ORIGINATOR     = 

OBJECT_NAME    = STARLINK-36603
OBJECT_ID      = 2026-018D
CENTER_NAME    = EARTH
REF_FRAME      = TEME
TIME_SYSTEM    = UTC
MEAN_ELEMENT_THEORY = SGP/SGP4

EPOCH          = 2026-02-12T12:00:01.999296
MEAN_MOTION    = 15.80796057
ECCENTRICITY   = .0001397
INCLINATION    = 97.2846
RA_OF_ASC_NODE = 108.0179
ARG_OF_PERICENTER = 103.9464
MEAN_ANOMALY   = 106.6778

EPHEMERIS_TYPE = 0
CLASSIFICATION_TYPE = U
NORAD_CAT_ID   = 67592
ELEMENT_SET_NO = 999
REV_AT_EPOCH   = 330
BSTAR          = .62436E-4
MEAN_MOTION_DOT = .11823E-3
MEAN_MOTION_DDOT = 0

CCSDS_OMM_VERS = 2.0
CREATION_DATE  = 
ORIGINATOR     = 

OBJECT_NAME    = STARLINK-36634
OBJECT_ID      = 2026-018E
CENTER_NAME    = EARTH
REF_FRAME      = TEME
TIME_SYSTEM    = UTC
MEAN_ELEMENT_THEORY = SGP/SGP4

EPOCH          = 2026-02-12T12:00:01.999296
MEAN_MOTION    = 15.80776410
ECCENTRICITY   = .0001346
INCLINATION    = 97.2847
RA_OF_ASC_NODE = 108.0212
ARG_OF_PERICENTER = 99.6532
MEAN_ANOMALY   = 117.5144

EPHEMERIS_TYPE = 0
CLASSIFICATION_TYPE = U
NORAD_CAT_ID   = 67593
ELEMENT_SET_NO = 999
REV_AT_EPOCH   = 329
BSTAR          = .39617E-3
MEAN_MOTION_DOT = .76271E-3
MEAN_MOTION_DDOT = 0

CCSDS_OMM_VERS = 2.0
CREATION_DATE  = 
ORIGINATOR     = 

OBJECT_NAME    = STARLINK-36638
OBJECT_ID      = 2026-018F
CENTER_NAME    = EARTH
REF_FRAME      = TEME
TIME_SYSTEM    = UTC
MEAN_ELEMENT_THEORY = SGP/SGP4

EPOCH          = 2026-02-12T12:00:01.999296
MEAN_MOTION    = 15.80810819
ECCENTRICITY   = .0001192
INCLINATION    = 97.2846
RA_OF_ASC_NODE = 108.0233
ARG_OF_PERICENTER = 77.7457
MEAN_ANOMALY   = 145.7239

EPHEMERIS_TYPE = 0
CLASSIFICATION_TYPE = U
NORAD_CAT_ID   = 67594
ELEMENT_SET_NO = 999
REV_AT_EPOCH   = 329
BSTAR          = -.80981E-4
MEAN_MOTION_DOT = -.15622E-3
MEAN_MOTION_DDOT = 0

CCSDS_OMM_VERS = 2.0
CREATION_DATE  = 
ORIGINATOR     = 

OBJECT_NAME    = STARLINK-36628
OBJECT_ID      = 2026-018G
CENTER_NAME    = EARTH
REF_FRAME      = TEME
TIME_SYSTEM    = UTC
MEAN_ELEMENT_THEORY = SGP/SGP4

EPOCH          = 2026-02-12T12:00:01.999296
MEAN_MOTION    = 15.80686935
ECCENTRICITY   = .0001026
INCLINATION    = 97.2850
RA_OF_ASC_NODE = 108.0263
ARG_OF_PERICENTER = 98.4214
MEAN_ANOMALY   = 129.7559

EPHEMERIS_TYPE = 0
CLASSIFICATION_TYPE = U
NORAD_CAT_ID   = 67595
ELEMENT_SET_NO = 999
REV_AT_EPOCH   = 329
BSTAR          = .12412E-2
MEAN_MOTION_DOT = .242924E-2
MEAN_MOTION_DDOT = 0

CCSDS_OMM_VERS = 2.0
CREATION_DATE  = 
ORIGINATOR     = 

OBJECT_NAME    = STARLINK-36629
OBJECT_ID      = 2026-018H
CENTER_NAME    = EARTH
REF_FRAME      = TEME
TIME_SYSTEM    = UTC
MEAN_ELEMENT_THEORY = SGP/SGP4

EPOCH          = 2026-02-12T12:00:01.999296
MEAN_MOTION    = 15.77637001
ECCENTRICITY   = .0001746
INCLINATION    = 97.2848
RA_OF_ASC_NODE = 108.0257
ARG_OF_PERICENTER = 78.8090
MEAN_ANOMALY   = 150.9579

EPHEMERIS_TYPE = 0
CLASSIFICATION_TYPE = U
NORAD_CAT_ID   = 67596
ELEMENT_SET_NO = 999
REV_AT_EPOCH   = 329
BSTAR          = -.12574E-1
MEAN_MOTION_DOT = -.1831407E-1
MEAN_MOTION_DDOT = 0

CCSDS_OMM_VERS = 2.0
CREATION_DATE  = 
ORIGINATOR     = 

OBJECT_NAME    = STARLINK-36384
OBJECT_ID      = 2026-018J
CENTER_NAME    = EARTH
REF_FRAME      = TEME
TIME_SYSTEM    = UTC
MEAN_ELEMENT_THEORY = SGP/SGP4

EPOCH          = 2026-02-12T12:00:01.999296
MEAN_MOTION    = 15.80742765
ECCENTRICITY   = .0001098
INCLINATION    = 97.2848
RA_OF_ASC_NODE = 108.0301
ARG_OF_PERICENTER = 69.0986
MEAN_ANOMALY   = 171.1348

EPHEMERIS_TYPE = 0
CLASSIFICATION_TYPE = U
NORAD_CAT_ID   = 67597
ELEMENT_SET_NO = 999
REV_AT_EPOCH   = 335
BSTAR          = .58546E-3
MEAN_MOTION_DOT = .113085E-2
MEAN_MOTION_DDOT = 0

CCSDS_OMM_VERS = 2.0
CREATION_DATE  = 
ORIGINATOR     = 

OBJECT_NAME    = STARLINK-36358
OBJECT_ID      = 2026-018K
CENTER_NAME    = EARTH
REF_FRAME      = TEME
TIME_SYSTEM    = UTC
MEAN_ELEMENT_THEORY = SGP/SGP4

EPOCH          = 2026-02-12T12:00:01.999296
MEAN_MOTION    = 15.80751041
ECCENTRICITY   = .0001404
INCLINATION    = 97.2849
RA_OF_ASC_NODE = 108.0316
ARG_OF_PERICENTER = 86.8417
MEAN_ANOMALY   = 157.7084

EPHEMERIS_TYPE = 0
CLASSIFICATION_TYPE = U
NORAD_CAT_ID   = 67598
ELEMENT_SET_NO = 999
REV_AT_EPOCH   = 334
BSTAR          = .3693E-3
MEAN_MOTION_DOT = .70963E-3
MEAN_MOTION_DDOT = 0

