CZ-2C DEB               
1 67587U 26009D   26043.19940552  .00041698  00000+0  19861-2 0  9994
2 67587  97.6728 118.0713 0106789 130.8142 230.2411 15.14012616  4234
NAVSTAR 85 (USA 581)    
1 67588U 26017A   26042.55632560 -.00000027  00000+0  00000+0 0  9994
2 67588  55.0041  93.7970 0000849  63.5435 296.5294  2.00561439429094
STARLINK-36641          
1 67589U 26018A   26043.50002314 -.01839335  00000+0 -11170-1 0  9996
2 67589  97.2847 108.0124 0001908 109.6354  85.2345 15.80348320  3291
STARLINK-36376          
1 67590U 26018B   26043.50002314  .00047090  00000+0  24560-3 0  9993
2 67590  97.2848 108.0134 0001452 113.4577  86.7096 15.80784680  3347
STARLINK-36391          
1 67591U 26018C   26043.50002314  .00032907  00000+0  17265-3 0  9999
2 67591  97.2847 108.0163 0001517  66.3827 140.1104 15.80718438  3348
STARLINK-36603          
1 67592U 26018D   26043.50002314  .00011823  00000+0  62436-4 0  9995
2 67592  97.2846 108.0179 0001397 103.9464 106.6778 15.80796057  3309
STARLINK-36634          
1 67593U 26018E   26043.50002314  .00076271  00000+0  39617-3 0  9998
2 67593  97.2847 108.0212 0001346  99.6532 117.5144 15.80776410  3297
STARLINK-36638          
1 67594U 26018F   26043.50002314 -.00015622  00000+0 -80981-4 0  9995
2 67594  97.2846 108.0233 0001192  77.7457 145.7239 15.80810819  3292
STARLINK-36628          
1 67595U 26018G   26043.50002314  .00242924  00000+0  12412-2 0  9993
2 67595  97.2850 108.0263 0001026  98.4214 129.7559 15.80686935  3295
STARLINK-36629          
1 67596U 26018H   26043.50002314 -.01831407  00000+0 -12574-1 0  9995
2 67596  97.2848 108.0257 0001746  78.8090 150.9579 15.77637001  3293
STARLINK-36384          
1 67597U 26018J   26043.50002314  .00113085  00000+0  58546-3 0  9999
2 67597  97.2848 108.0301 0001098  69.0986 171.1348 15.80742765  3354
STARLINK-36358          
1 67598U 26018K   26043.50002314  .00070963  00000+0  36930-3 0  9990
2 67598  97.2849 108.0316 0001404  86.8417 157.7084 15.80751041  3342
